{"type": "FeatureCollection", "features": [ {"type": "Feature", "properties": {"norad_id": 39155, "name": "COSMOS 2485 (747)", "group": "glo-ops", "lat": 38.69318591140449, "lon": -121.97801287028642, "alt_km": 19129.211252232984, "timestamp": "2025-12-21T05:44:51.846818+00:00", "meta": {"OBJECT_NAME": "COSMOS 2485 (747)", "OBJECT_ID": "2013-019A", "EPOCH": "2025-12-20T02:56:15.241632", "MEAN_MOTION": 2.1310322, "ECCENTRICITY": 0.0024876, "INCLINATION": 65.3174, "RA_OF_ASC_NODE": 79.6189, "ARG_OF_PERICENTER": 230.2075, "MEAN_ANOMALY": 129.6042, "EPHEMERIS_TYPE": 0, "CLASSIFICATION_TYPE": "U", "NORAD_CAT_ID": 39155, "ELEMENT_SET_NO": 999, "REV_AT_EPOCH": 9846, "BSTAR": 0, "MEAN_MOTION_DOT": -2e-07, "MEAN_MOTION_DDOT": 0}, "tle": {"line1": "1 39155U 13019A   25354.12239863 -.00000020  00000+0  00000+0 0  9991", "line2": "2 39155  65.3174  79.6189 0024876 230.2075 129.6042  2.13103220 98462"}}, "geometry": {"type": "Point", "coordinates": [-121.97801287028642, 38.69318591140449]}}, {"type": "Feature", "properties": {"norad_id": 39620, "name": "COSMOS 2492 (754)", "group": "glo-ops", "lat": 10.352788757004312, "lon": 135.16657250738402, "alt_km": 19158.42969730996, "timestamp": "2025-12-21T05:44:51.846829+00:00", "meta": {"OBJECT_NAME": "COSMOS 2492 (754)", "OBJECT_ID": "2014-012A", "EPOCH": "2025-12-20T01:56:38.014656", "MEAN_MOTION": 2.13103387, "ECCENTRICITY": 0.00142311, "INCLINATION": 65.4033, "RA_OF_ASC_NODE": 320.0211, "ARG_OF_PERICENTER": 312.7815, "MEAN_ANOMALY": 47.0902, "EPHEMERIS_TYPE": 0, "CLASSIFICATION_TYPE": "U", "NORAD_CAT_ID": 39620, "ELEMENT_SET_NO": 999, "REV_AT_EPOCH": 9142, "BSTAR": 0, "MEAN_MOTION_DOT": -5.4e-07, "MEAN_MOTION_DDOT": 0}, "tle": {"line1": "1 39620U 14012A   25354.08099554 -.00000054  00000+0  00000+0 0  9995", "line2": "2 39620  65.4033 320.0211 0014231 312.7815  47.0902  2.13103387 91426"}}, "geometry": {"type": "Point", "coordinates": [135.16657250738402, 10.352788757004312]}}, {"type": "Feature", "properties": {"norad_id": 40001, "name": "COSMOS 2500 (755)", "group": "glo-ops", "lat": 32.884225212290225, "lon": -23.003984924916825, "alt_km": 19145.51027718631, "timestamp": "2025-12-21T05:44:51.846841+00:00", "meta": {"OBJECT_NAME": "COSMOS 2500 (755)", "OBJECT_ID": "2014-032A", "EPOCH": "2025-12-20T06:04:27.939360", "MEAN_MOTION": 2.13106249, "ECCENTRICITY": 0.00077498, "INCLINATION": 65.339, "RA_OF_ASC_NODE": 319.7771, "ARG_OF_PERICENTER": 219.4032, "MEAN_ANOMALY": 140.5324, "EPHEMERIS_TYPE": 0, "CLASSIFICATION_TYPE": "U", "NORAD_CAT_ID": 40001, "ELEMENT_SET_NO": 999, "REV_AT_EPOCH": 8964, "BSTAR": 0, "MEAN_MOTION_DOT": -5.3e-07, "MEAN_MOTION_DDOT": 0}, "tle": {"line1": "1 40001U 14032A   25354.25310115 -.00000053  00000+0  00000+0 0  9999", "line2": "2 40001  65.3390 319.7771 0007749 219.4032 140.5324  2.13106249 89640"}}, "geometry": {"type": "Point", "coordinates": [-23.003984924916825, 32.884225212290225]}}, {"type": "Feature", "properties": {"norad_id": 40315, "name": "COSMOS 2501 (702K)", "group": "glo-ops", "lat": -15.46117917970661, "lon": 24.431867782039518, "alt_km": 19081.449971842187, "timestamp": "2025-12-21T05:44:51.846852+00:00", "meta": {"OBJECT_NAME": "COSMOS 2501 (702K)", "OBJECT_ID": "2014-075A", "EPOCH": "2025-12-19T02:31:27.452640", "MEAN_MOTION": 2.13101513, "ECCENTRICITY": 0.0020099, "INCLINATION": 63.6146, "RA_OF_ASC_NODE": 196.6046, "ARG_OF_PERICENTER": 204.1838, "MEAN_ANOMALY": 155.7988, "EPHEMERIS_TYPE": 0, "CLASSIFICATION_TYPE": "U", "NORAD_CAT_ID": 40315, "ELEMENT_SET_NO": 999, "REV_AT_EPOCH": 8601, "BSTAR": 0, "MEAN_MOTION_DOT": 1.06e-06, "MEAN_MOTION_DDOT": 0}, "tle": {"line1": "1 40315U 14075A   25353.10517885  .00000106  00000+0  00000+0 0  9998", "line2": "2 40315  63.6146 196.6046 0020099 204.1838 155.7988  2.13101513 86014"}}, "geometry": {"type": "Point", "coordinates": [24.431867782039518, -15.46117917970661]}}, {"type": "Feature", "properties": {"norad_id": 41330, "name": "COSMOS 2514 (751)", "group": "glo-ops", "lat": -26.612963208412484, "lon": 152.52684036643532, "alt_km": 19104.14205276497, "timestamp": "2025-12-21T05:44:51.846869+00:00", "meta": {"OBJECT_NAME": "COSMOS 2514 (751)", "OBJECT_ID": "2016-008A", "EPOCH": "2025-12-20T11:55:37.204896", "MEAN_MOTION": 2.13102667, "ECCENTRICITY": 0.00117608, "INCLINATION": 65.1293, "RA_OF_ASC_NODE": 319.1384, "ARG_OF_PERICENTER": 220.1375, "MEAN_ANOMALY": 139.7678, "EPHEMERIS_TYPE": 0, "CLASSIFICATION_TYPE": "U", "NORAD_CAT_ID": 41330, "ELEMENT_SET_NO": 999, "REV_AT_EPOCH": 7681, "BSTAR": 0, "MEAN_MOTION_DOT": -5.2e-07, "MEAN_MOTION_DDOT": 0}, "tle": {"line1": "1 41330U 16008A   25354.49695839 -.00000052  00000+0  00000+0 0  9994", "line2": "2 41330  65.1293 319.1384 0011760 220.1375 139.7678  2.13102667 76814"}}, "geometry": {"type": "Point", "coordinates": [152.52684036643532, -26.612963208412484]}}, {"type": "Feature", "properties": {"norad_id": 42939, "name": "COSMOS 2522 (752)", "group": "glo-ops", "lat": -23.503237176986953, "lon": -174.27430679234428, "alt_km": 19138.72814294867, "timestamp": "2025-12-21T05:44:51.846884+00:00", "meta": {"OBJECT_NAME": "COSMOS 2522 (752)", "OBJECT_ID": "2017-055A", "EPOCH": "2025-12-20T08:02:51.947808", "MEAN_MOTION": 2.13102062, "ECCENTRICITY": 0.00063083, "INCLINATION": 64.0763, "RA_OF_ASC_NODE": 197.9702, "ARG_OF_PERICENTER": 223.818, "MEAN_ANOMALY": 136.2073, "EPHEMERIS_TYPE": 0, "CLASSIFICATION_TYPE": "U", "NORAD_CAT_ID": 42939, "ELEMENT_SET_NO": 999, "REV_AT_EPOCH": 6416, "BSTAR": 0, "MEAN_MOTION_DOT": 1.01e-06, "MEAN_MOTION_DDOT": 0}, "tle": {"line1": "1 42939U 17055A   25354.33532347  .00000101  00000+0  00000+0 0  9994", "line2": "2 42939  64.0763 197.9702 0006308 223.8180 136.2073  2.13102062 64167"}}, "geometry": {"type": "Point", "coordinates": [-174.27430679234428, -23.503237176986953]}}, {"type": "Feature", "properties": {"norad_id": 43508, "name": "COSMOS 2527 (756)", "group": "glo-ops", "lat": 3.35258885994808, "lon": 81.38998110343044, "alt_km": 19146.48805419903, "timestamp": "2025-12-21T05:44:51.846895+00:00", "meta": {"OBJECT_NAME": "COSMOS 2527 (756)", "OBJECT_ID": "2018-053A", "EPOCH": "2025-12-18T21:19:14.310912", "MEAN_MOTION": 2.13102316, "ECCENTRICITY": 0.0008836, "INCLINATION": 65.4759, "RA_OF_ASC_NODE": 79.9259, "ARG_OF_PERICENTER": 226.7635, "MEAN_ANOMALY": 133.1863, "EPHEMERIS_TYPE": 0, "CLASSIFICATION_TYPE": "U", "NORAD_CAT_ID": 43508, "ELEMENT_SET_NO": 999, "REV_AT_EPOCH": 5843, "BSTAR": 0, "MEAN_MOTION_DOT": -3.3e-07, "MEAN_MOTION_DDOT": 0}, "tle": {"line1": "1 43508U 18053A   25352.88836008 -.00000033  00000+0  00000+0 0  9990", "line2": "2 43508  65.4759  79.9259 0008836 226.7635 133.1863  2.13102316 58439"}}, "geometry": {"type": "Point", "coordinates": [81.38998110343044, 3.35258885994808]}}, {"type": "Feature", "properties": {"norad_id": 43687, "name": "COSMOS 2529 (757)", "group": "glo-ops", "lat": -58.41417531239863, "lon": 146.9845698690917, "alt_km": 19121.501675388477, "timestamp": "2025-12-21T05:44:51.846906+00:00", "meta": {"OBJECT_NAME": "COSMOS 2529 (757)", "OBJECT_ID": "2018-086A", "EPOCH": "2025-12-18T12:23:46.661856", "MEAN_MOTION": 2.13102105, "ECCENTRICITY": 0.00070461, "INCLINATION": 64.2922, "RA_OF_ASC_NODE": 198.6932, "ARG_OF_PERICENTER": 253.6593, "MEAN_ANOMALY": 106.345, "EPHEMERIS_TYPE": 0, "CLASSIFICATION_TYPE": "U", "NORAD_CAT_ID": 43687, "ELEMENT_SET_NO": 999, "REV_AT_EPOCH": 5543, "BSTAR": 0, "MEAN_MOTION_DOT": 1.09e-06, "MEAN_MOTION_DDOT": 0}, "tle": {"line1": "1 43687U 18086A   25352.51651229  .00000109  00000+0  00000+0 0  9997", "line2": "2 43687  64.2922 198.6932 0007046 253.6593 106.3450  2.13102105 55434"}}, "geometry": {"type": "Point", "coordinates": [146.9845698690917, -58.41417531239863]}}, {"type": "Feature", "properties": {"norad_id": 44299, "name": "COSMOS 2534 (758)", "group": "glo-ops", "lat": 53.71599759131788, "lon": -120.51403725278867, "alt_km": 19140.693669258333, "timestamp": "2025-12-21T05:44:51.846917+00:00", "meta": {"OBJECT_NAME": "COSMOS 2534 (758)", "OBJECT_ID": "2019-030A", "EPOCH": "2025-12-18T18:30:09.690336", "MEAN_MOTION": 2.13102412, "ECCENTRICITY": 0.0008748, "INCLINATION": 64.3658, "RA_OF_ASC_NODE": 198.6898, "ARG_OF_PERICENTER": 284.2192, "MEAN_ANOMALY": 45.4012, "EPHEMERIS_TYPE": 0, "CLASSIFICATION_TYPE": "U", "NORAD_CAT_ID": 44299, "ELEMENT_SET_NO": 999, "REV_AT_EPOCH": 5107, "BSTAR": 0, "MEAN_MOTION_DOT": 1.08e-06, "MEAN_MOTION_DDOT": 0}, "tle": {"line1": "1 44299U 19030A   25352.77094549  .00000108  00000+0  00000+0 0  9990", "line2": "2 44299  64.3658 198.6898 0008748 284.2192  45.4012  2.13102412 51071"}}, "geometry": {"type": "Point", "coordinates": [-120.51403725278867, 53.71599759131788]}}, {"type": "Feature", "properties": {"norad_id": 44850, "name": "COSMOS 2544 (759)", "group": "glo-ops", "lat": 41.000024871438065, "lon": 103.03771702509336, "alt_km": 19158.158900629798, "timestamp": "2025-12-21T05:44:51.846928+00:00", "meta": {"OBJECT_NAME": "COSMOS 2544 (759)", "OBJECT_ID": "2019-088A", "EPOCH": "2025-12-20T17:02:22.284096", "MEAN_MOTION": 2.13102112, "ECCENTRICITY": 0.0014152, "INCLINATION": 65.4642, "RA_OF_ASC_NODE": 79.6917, "ARG_OF_PERICENTER": 250.1796, "MEAN_ANOMALY": 109.702, "EPHEMERIS_TYPE": 0, "CLASSIFICATION_TYPE": "U", "NORAD_CAT_ID": 44850, "ELEMENT_SET_NO": 999, "REV_AT_EPOCH": 4691, "BSTAR": 0, "MEAN_MOTION_DOT": -1.4e-07, "MEAN_MOTION_DDOT": 0}, "tle": {"line1": "1 44850U 19088A   25354.70998014 -.00000014  00000+0  00000+0 0  9998", "line2": "2 44850  65.4642  79.6917 0014152 250.1796 109.7020  2.13102112 46914"}}, "geometry": {"type": "Point", "coordinates": [103.03771702509336, 41.000024871438065]}}]}